satname,norad_id,inclination_deg,eccentricity,mean_motion_rev_per_day,perigee_km,apogee_km,l1,l2
STARLINK-1513,45786,53.0553,0.0002075,15.06723193,544.7843906798644,547.6579993307905,1 45786U 20038BJ  26026.71734688  .00098251  00000+0  64669-2 0  9990,2 45786  53.0553  25.0393 0002075 108.3973 251.7242 15.06723193310431
STARLINK-1522,46027,53.0574,0.0001298,15.06378459,546.3786599752084,548.1764975998612,1 46027U 20055A   26026.10102640  .00000464  00000+0  50053-4 0  9991,2 46027  53.0574 317.8064 0001298 110.5029 249.6100 15.06378459302467
STARLINK-1523,46028,53.0562,0.0002002,15.06414962,545.779256341817,548.5521475436753,1 46028U 20055B   26026.77921094  .00003853  00000+0  27733-3 0  9990,2 46028  53.0562 314.7640 0002002  82.8012 277.3205 15.06414962302585
STARLINK-1526,46029,53.0545,0.0001675,15.06388959,546.0853956682322,548.4053987713014,1 46029U 20055C   26026.50647638 -.00000252  00000+0  20126-5 0  9993,2 46029  53.0545 315.9860 0001675  90.2341 269.8840 15.06388959302539
STARLINK-1555,46032,53.0551,0.000126,15.06403031,546.3296756275822,548.0748611232129,1 46032U 20055F   26026.82346535  .00021680  00000+0  14698-2 0  9995,2 46032  53.0551 314.5623 0001260  86.4950 273.6183 15.06403031302582
STARLINK-1556,46033,53.0536,0.0001631,15.06403895,546.0700979472031,548.3291427527611,1 46033U 20055G   26026.80502523  .00000031  00000+0  20983-4 0  9998,2 46033  53.0536 314.6454 0001631  81.2225 278.8949 15.06403895302551
STARLINK-1557,46034,53.055,0.0001372,15.06445522,546.1219043972724,548.0221817586917,1 46034U 20055H   26026.80870265  .00008952  00000+0  61835-3 0  9990,2 46034  53.0550 314.6281 0001372  76.9780 283.1362 15.06445522302556
STARLINK-1558,46035,53.055,0.0001562,15.06401173,546.1262239813532,548.2897017477526,1 46035U 20055J   26026.81608734  .00002911  00000+0  21424-3 0  9991,2 46035  53.0550 314.5971 0001562  90.1781 269.9387 15.06401173302588
STARLINK-1560,46036,53.0544,0.0001657,15.06417916,546.0091273653024,548.304169680423,1 46036U 20055K   26026.80134528  .00020082  00000+0  13625-2 0  9998,2 46036  53.0544 314.6631 0001657 100.7792 259.3383 15.06417916302582
STARLINK-1567,46038,53.0544,0.0001447,15.06385945,546.2525306543566,548.2567389934757,1 46038U 20055M   26026.81241176 -.00000278  00000+0  21002-6 0  9997,2 46038  53.0544 314.6117 0001447  90.0540 270.0615 15.06385945302575
STARLINK-1569,46039,53.0548,0.0001852,15.06401167,545.9254073631373,548.4905551441943,1 46039U 20055N   26026.81977985  .00018869  00000+0  12822-2 0  9992,2 46039  53.0548 314.5795 0001852  88.7496 271.3705 15.06401167302574
STARLINK-1582,46043,53.0539,7.41e-05,15.06392255,546.7221252624113,547.7484654365817,1 46043U 20055S   26026.49541282 -.00000011  00000+0  18153-4 0  9994,2 46043  53.0539 316.0311 0000741  44.7215 315.3834 15.06392255302521
STARLINK-1591,46045,53.0561,0.0001751,15.06400568,545.9971888729578,548.4224453283068,1 46045U 20055U   26026.78660869  .00003754  00000+0  27078-3 0  9992,2 46045  53.0561 314.7311 0001751  71.5524 288.5655 15.06400568302558
STARLINK-1524,46047,53.0571,0.0002379,15.06398857,545.5675198155423,548.8626023261995,1 46047U 20055W   26026.80595780  .00001445  00000+0  11590-3 0  9993,2 46047  53.0571 304.6398 0002379  88.5230 271.6031 15.06398857302719
STARLINK-1527,46048,53.0545,0.0002824,15.06398343,545.2609165423601,549.1723562762036,1 46048U 20055X   26026.07245522 -.00001752  00000+0 -98731-4 0  9995,2 46048  53.0545 307.9313 0002824  85.5829 274.5482 15.06398343302587
STARLINK-1540,46051,53.0551,0.0001555,15.06407413,546.111950086266,548.2657264219633,1 46051U 20055AA  26026.76909170  .00006983  00000+0  48710-3 0  9991,2 46051  53.0551 304.8066 0001555  98.0265 262.0900 15.06407413302724
STARLINK-1541,46052,53.0539,0.0001467,15.06399762,546.1963386336374,548.2282361145526,1 46052U 20055AB  26026.75435052  .00002268  00000+0  17109-3 0  9994,2 46052  53.0539 304.8721 0001467  98.3702 261.7453 15.06399762302681
STARLINK-1543,46053,53.0563,0.0001008,15.06401749,546.5081229160569,547.9042721046753,1 46053U 20055AC  26026.75803376  .00003113  00000+0  22776-3 0  9999,2 46053  53.0563 304.8555 0001008  76.1518 283.9583 15.06401749302717
STARLINK-1548,46054,53.0577,0.0001322,15.06403505,546.2852859796913,548.1163452981464,1 46054U 20055AD  26026.76541800  .00009416  00000+0  65012-3 0  9994,2 46054  53.0577 304.8221 0001322  80.2899 279.8239 15.06403505302714
STARLINK-1554,46055,53.0561,0.0002981,15.0639755,545.1546182020629,549.2835154891163,1 46055U 20055AE  26026.48528894  .00007263  00000+0  50602-3 0  9999,2 46055  53.0561 306.0809 0002981  91.4082 268.7248 15.06397550302678
STARLINK-1564,46058,53.0538,0.0001102,15.0640784,546.4243588084992,547.9507003348153,1 46058U 20055AH  26026.49639017  .00014098  00000+0  96322-3 0  9996,2 46058  53.0538 306.4939 0001102  85.5330 274.5785 15.06407840302661
STARLINK-1570,46059,53.0515,0.0002151,15.06420274,545.6597926358381,548.6390508544719,1 46059U 20055AJ  26026.79120764 -.00005965  00000+0 -38165-3 0  9990,2 46059  53.0515 304.7069 0002151  91.8984 268.2251 15.06420274302677
STARLINK-1572,46060,53.0546,0.0001168,15.06413292,546.3619442188274,547.9796961256206,1 46060U 20055AK  26026.78752510  .00014732  00000+0  10055-2 0  9998,2 46060  53.0546 304.7221 0001168  86.3097 273.8026 15.06413292302689
STARLINK-1573,46061,53.0544,0.0001614,15.06393088,546.1149876273621,548.3504969801779,1 46061U 20055AL  26026.78384659  .00002458  00000+0  18389-3 0  9995,2 46061  53.0544 304.7776 0001614  87.8632 272.2542 15.06393088302710
STARLINK-1577,46063,53.054,0.0001878,15.06391353,545.9374744384086,548.5386453108977,1 46063U 20055AN  26026.47790798 -.00003399  00000+0 -20942-3 0  9993,2 46063  53.0540 306.1130 0001878  91.9315 268.1889 15.06391353302669
STARLINK-1583,46064,53.0554,0.0001535,15.06413127,546.1082910380474,548.2343606940885,1 46064U 20055AP  26026.77646868  .00011042  00000+0  75874-3 0  9991,2 46064  53.0554 304.7743 0001535  78.4488 281.6673 15.06413127302711
STARLINK-1525,46066,53.0534,0.0001725,15.06406992,545.9955096185222,548.3847474778713,1 46066U 20055AR  26026.70828646  .00002679  00000+0  19864-3 0  9995,2 46066  53.0534 285.0793 0001725  81.9226 278.1958 15.06406992302974
STARLINK-1536,46070,53.0528,0.0002129,15.06401647,545.7321044917826,548.6809157583939,1 46070U 20055AV  26026.68617405  .00002657  00000+0  19723-3 0  9996,2 46070  53.0528 285.1789 0002129  95.9277 264.1954 15.06401647302982
